*******************************************************************************
Ephemeris / WWW_USER Mon Mar 24 09:13:07 2025 Pasadena, USA      / Horizons    
*******************************************************************************
Target body name: (2013 AZ60)                     {source: JPL#49}
Center body name: Earth (399)                     {source: DE441}
Center-site name: Mauna Kea
*******************************************************************************
Start time      : A.D. 2018-Dec-20 03:57:00.0000 UT      
Stop  time      : A.D. 2018-Dec-20 16:41:00.0000 UT      
Step-size       : 1 minutes
*******************************************************************************
Target pole/equ : undefined
Target radii    : undefined                                                    
Center geodetic : 204.5278, 19.8260847, 4.21024   {E-lon(deg),Lat(deg),Alt(km)}
Center cylindric: 204.5278, 6006.35451, 2151.0229 {E-lon(deg),Dxy(km),Dz(km)}
Center pole/equ : ITRF93                          {East-longitude positive}
Center radii    : 6378.137, 6378.137, 6356.752 km {Equator_a, b, pole_c}       
Target primary  : Sun
Vis. interferer : MOON (R_eq= 1737.400) km        {source: DE441}
Rel. light bend : Sun                             {source: DE441}
Rel. lght bnd GM: 1.3271E+11 km^3/s^2                                          
Small-body perts: Yes                             {source: SB441-N16}
Atmos refraction: NO (AIRLESS)
RA format       : HMS
Time format     : CAL 
Calendar mode   : Mixed Julian/Gregorian
RTS-only print  : NO       
EOP file        : eop.250321.p250617                                           
EOP coverage    : DATA-BASED 1962-JAN-20 TO 2025-MAR-21. PREDICTS-> 2025-JUN-16
Units conversion: 1 au= 149597870.700 km, c= 299792.458 km/s, 1 day= 86400.0 s 
Table cut-offs 1: Elevation (-90.0deg=NO ),Airmass (>38.000=NO), Daylight (YES)
Table cut-offs 2: Solar elongation (  0.0,180.0=NO ),Local Hour Angle( 0.0=NO )
Table cut-offs 3: RA/DEC angular rate (     0.0=NO )                           
*******************************************************************************
Initial IAU76/J2000 heliocentric ecliptic osculating elements (au, days, deg.):
  EPOCH=  2457400.5 ! 2016-Jan-13.00 (TDB)         Residual RMS= .1326         
   EC= .9891456016948332   QR= 7.910280980491398   TP= 2456989.3208761909      
   OM= 349.2102750469422   W=  158.2320149266156   IN= 16.53862471305098       
  Equivalent ICRF heliocentric cartesian coordinates (au, au/d):
   X=-8.215502218447208E+00  Y= 1.083611838195559E+00  Z= 3.298265209415168E-01
  VX=-2.822922434188891E-03 VY=-6.008885131743716E-03 VZ=-5.184670886061429E-03
Asteroid physical parameters (km, seconds, rotational period in hours):        
   GM= n.a.                RAD= n.a.               ROTPER= 9.39                
   H= 10.3                 G= .150                 B-V= n.a.                   
                           ALBEDO= n.a.            STYP= n.a.                  
*******************************************************************************
 Date__(UT)__HR:MN     R.A._________(ICRF)_________DEC
******************************************************
$$SOE
 2018-Dec-20 08:03  m  14 13 09.716786 -25 41 46.26121
 2018-Dec-20 08:04  m  14 13 09.729659 -25 41 46.36969
 2018-Dec-20 08:05  m  14 13 09.742532 -25 41 46.47818
 2018-Dec-20 08:06  m  14 13 09.755404 -25 41 46.58667
 2018-Dec-20 08:07  m  14 13 09.768275 -25 41 46.69516
 2018-Dec-20 08:08  m  14 13 09.781147 -25 41 46.80366
 2018-Dec-20 08:09  m  14 13 09.794017 -25 41 46.91216
 2018-Dec-20 08:10  m  14 13 09.806888 -25 41 47.02067
 2018-Dec-20 08:11  m  14 13 09.819757 -25 41 47.12919
 2018-Dec-20 08:12  m  14 13 09.832627 -25 41 47.23771
 2018-Dec-20 08:13  m  14 13 09.845496 -25 41 47.34623
 2018-Dec-20 08:14  m  14 13 09.858364 -25 41 47.45476
 2018-Dec-20 08:15  m  14 13 09.871232 -25 41 47.56329
 2018-Dec-20 08:16  m  14 13 09.884099 -25 41 47.67183
 2018-Dec-20 08:17  m  14 13 09.896966 -25 41 47.78037
 2018-Dec-20 08:18  m  14 13 09.909832 -25 41 47.88892
 2018-Dec-20 08:19  m  14 13 09.922698 -25 41 47.99747
 2018-Dec-20 08:20  m  14 13 09.935563 -25 41 48.10603
 2018-Dec-20 08:21  m  14 13 09.948428 -25 41 48.21459
 2018-Dec-20 08:22  m  14 13 09.961292 -25 41 48.32316
 2018-Dec-20 08:23  m  14 13 09.974156 -25 41 48.43173
 2018-Dec-20 08:24  m  14 13 09.987019 -25 41 48.54031
 2018-Dec-20 08:25  m  14 13 09.999882 -25 41 48.64889
 2018-Dec-20 08:26  m  14 13 10.012744 -25 41 48.75748
 2018-Dec-20 08:27  m  14 13 10.025606 -25 41 48.86607
 2018-Dec-20 08:28  m  14 13 10.038467 -25 41 48.97466
 2018-Dec-20 08:29  m  14 13 10.051327 -25 41 49.08326
 2018-Dec-20 08:30  m  14 13 10.064187 -25 41 49.19187
 2018-Dec-20 08:31  m  14 13 10.077047 -25 41 49.30048
 2018-Dec-20 08:32  m  14 13 10.089906 -25 41 49.40909
 2018-Dec-20 08:33  m  14 13 10.102764 -25 41 49.51771
 2018-Dec-20 08:34  m  14 13 10.115622 -25 41 49.62633
 2018-Dec-20 08:35  m  14 13 10.128479 -25 41 49.73496
 2018-Dec-20 08:36  m  14 13 10.141335 -25 41 49.84359
 2018-Dec-20 08:37  m  14 13 10.154191 -25 41 49.95223
 2018-Dec-20 08:38  m  14 13 10.167047 -25 41 50.06087
 2018-Dec-20 08:39  m  14 13 10.179902 -25 41 50.16952
 2018-Dec-20 08:40  m  14 13 10.192756 -25 41 50.27817
 2018-Dec-20 08:41  m  14 13 10.205609 -25 41 50.38683
 2018-Dec-20 08:42  m  14 13 10.218462 -25 41 50.49549
 2018-Dec-20 08:43  m  14 13 10.231315 -25 41 50.60415
 2018-Dec-20 08:44  m  14 13 10.244167 -25 41 50.71282
 2018-Dec-20 08:45  m  14 13 10.257018 -25 41 50.82149
 2018-Dec-20 08:46  m  14 13 10.269869 -25 41 50.93017
 2018-Dec-20 08:47  m  14 13 10.282719 -25 41 51.03886
 2018-Dec-20 08:48  m  14 13 10.295568 -25 41 51.14754
 2018-Dec-20 08:49  m  14 13 10.308417 -25 41 51.25623
 2018-Dec-20 08:50  m  14 13 10.321265 -25 41 51.36493
 2018-Dec-20 08:51  m  14 13 10.334113 -25 41 51.47363
 2018-Dec-20 08:52  m  14 13 10.346960 -25 41 51.58234
 2018-Dec-20 08:53  m  14 13 10.359806 -25 41 51.69105
 2018-Dec-20 08:54  m  14 13 10.372652 -25 41 51.79976
 2018-Dec-20 08:55  m  14 13 10.385497 -25 41 51.90848
 2018-Dec-20 08:56  m  14 13 10.398341 -25 41 52.01720
 2018-Dec-20 08:57  m  14 13 10.411185 -25 41 52.12593
 2018-Dec-20 08:58  m  14 13 10.424028 -25 41 52.23466
 2018-Dec-20 08:59  m  14 13 10.436870 -25 41 52.34339
 2018-Dec-20 09:00  m  14 13 10.449712 -25 41 52.45213
 2018-Dec-20 09:01  m  14 13 10.462553 -25 41 52.56088
 2018-Dec-20 09:02  m  14 13 10.475393 -25 41 52.66963
 2018-Dec-20 09:03  m  14 13 10.488233 -25 41 52.77838
 2018-Dec-20 09:04  m  14 13 10.501072 -25 41 52.88714
 2018-Dec-20 09:05  m  14 13 10.513911 -25 41 52.99590
 2018-Dec-20 09:06  m  14 13 10.526748 -25 41 53.10466
 2018-Dec-20 09:07  m  14 13 10.539585 -25 41 53.21343
 2018-Dec-20 09:08  m  14 13 10.552422 -25 41 53.32221
 2018-Dec-20 09:09  m  14 13 10.565257 -25 41 53.43099
 2018-Dec-20 09:10  m  14 13 10.578092 -25 41 53.53977
 2018-Dec-20 09:11  m  14 13 10.590927 -25 41 53.64855
 2018-Dec-20 09:12  m  14 13 10.603760 -25 41 53.75734
 2018-Dec-20 09:13  m  14 13 10.616593 -25 41 53.86614
 2018-Dec-20 09:14  m  14 13 10.629425 -25 41 53.97494
 2018-Dec-20 09:15  m  14 13 10.642257 -25 41 54.08374
 2018-Dec-20 09:16  m  14 13 10.655088 -25 41 54.19255
 2018-Dec-20 09:17  m  14 13 10.667918 -25 41 54.30136
 2018-Dec-20 09:18  m  14 13 10.680747 -25 41 54.41017
 2018-Dec-20 09:19  m  14 13 10.693575 -25 41 54.51899
 2018-Dec-20 09:20  m  14 13 10.706403 -25 41 54.62782
 2018-Dec-20 09:21  m  14 13 10.719231 -25 41 54.73664
 2018-Dec-20 09:22  m  14 13 10.732057 -25 41 54.84547
 2018-Dec-20 09:23  m  14 13 10.744883 -25 41 54.95431
 2018-Dec-20 09:24  m  14 13 10.757708 -25 41 55.06315
 2018-Dec-20 09:25  m  14 13 10.770532 -25 41 55.17199
 2018-Dec-20 09:26  m  14 13 10.783355 -25 41 55.28084
 2018-Dec-20 09:27  m  14 13 10.796178 -25 41 55.38969
 2018-Dec-20 09:28  m  14 13 10.809000 -25 41 55.49854
 2018-Dec-20 09:29  m  14 13 10.821821 -25 41 55.60740
 2018-Dec-20 09:30  m  14 13 10.834642 -25 41 55.71627
 2018-Dec-20 09:31  m  14 13 10.847461 -25 41 55.82513
 2018-Dec-20 09:32  m  14 13 10.860280 -25 41 55.93400
 2018-Dec-20 09:33  m  14 13 10.873098 -25 41 56.04288
 2018-Dec-20 09:34  m  14 13 10.885916 -25 41 56.15175
 2018-Dec-20 09:35  m  14 13 10.898732 -25 41 56.26063
 2018-Dec-20 09:36  m  14 13 10.911548 -25 41 56.36952
 2018-Dec-20 09:37  m  14 13 10.924363 -25 41 56.47841
 2018-Dec-20 09:38  m  14 13 10.937178 -25 41 56.58730
 2018-Dec-20 09:39  m  14 13 10.949991 -25 41 56.69620
 2018-Dec-20 09:40  m  14 13 10.962804 -25 41 56.80510
 2018-Dec-20 09:41  m  14 13 10.975616 -25 41 56.91400
 2018-Dec-20 09:42  m  14 13 10.988427 -25 41 57.02291
 2018-Dec-20 09:43  m  14 13 11.001237 -25 41 57.13182
 2018-Dec-20 09:44  m  14 13 11.014047 -25 41 57.24074
 2018-Dec-20 09:45  m  14 13 11.026856 -25 41 57.34965
 2018-Dec-20 09:46  m  14 13 11.039664 -25 41 57.45858
 2018-Dec-20 09:47  m  14 13 11.052471 -25 41 57.56750
 2018-Dec-20 09:48  m  14 13 11.065277 -25 41 57.67643
 2018-Dec-20 09:49  m  14 13 11.078083 -25 41 57.78536
 2018-Dec-20 09:50  m  14 13 11.090887 -25 41 57.89430
 2018-Dec-20 09:51  m  14 13 11.103691 -25 41 58.00324
 2018-Dec-20 09:52  m  14 13 11.116494 -25 41 58.11218
 2018-Dec-20 09:53  m  14 13 11.129297 -25 41 58.22113
 2018-Dec-20 09:54  m  14 13 11.142098 -25 41 58.33008
 2018-Dec-20 09:55  m  14 13 11.154899 -25 41 58.43903
 2018-Dec-20 09:56  m  14 13 11.167698 -25 41 58.54799
 2018-Dec-20 09:57  m  14 13 11.180497 -25 41 58.65695
 2018-Dec-20 09:58  m  14 13 11.193295 -25 41 58.76591
 2018-Dec-20 09:59  m  14 13 11.206093 -25 41 58.87488
 2018-Dec-20 10:00  m  14 13 11.218889 -25 41 58.98385
 2018-Dec-20 10:01  m  14 13 11.231685 -25 41 59.09282
 2018-Dec-20 10:02  m  14 13 11.244479 -25 41 59.20180
 2018-Dec-20 10:03  m  14 13 11.257273 -25 41 59.31078
 2018-Dec-20 10:04  m  14 13 11.270066 -25 41 59.41976
 2018-Dec-20 10:05  m  14 13 11.282858 -25 41 59.52875
